CCSDS_OMM_VERS = 2.0
CREATION_DATE  = 
ORIGINATOR     = 

OBJECT_NAME    = SL-14 R/B
OBJECT_ID      = 1991-042B
CENTER_NAME    = EARTH
REF_FRAME      = TEME
TIME_SYSTEM    = UTC
MEAN_ELEMENT_THEORY = SGP/SGP4

EPOCH          = 2026-02-10T00:06:19.947456
MEAN_MOTION    = 14.81802498
ECCENTRICITY   = .00164776
INCLINATION    = 82.4898
RA_OF_ASC_NODE = 246.1496
ARG_OF_PERICENTER = 336.9902
MEAN_ANOMALY   = 23.0572

EPHEMERIS_TYPE = 0
CLASSIFICATION_TYPE = U
NORAD_CAT_ID   = 21423
ELEMENT_SET_NO = 999
REV_AT_EPOCH   = 84897
BSTAR          = .49956887E-4
MEAN_MOTION_DOT = .418E-5
MEAN_MOTION_DDOT = 0

CCSDS_OMM_VERS = 2.0
CREATION_DATE  = 
ORIGINATOR     = 

OBJECT_NAME    = ERS-1
OBJECT_ID      = 1991-050A
CENTER_NAME    = EARTH
REF_FRAME      = TEME
TIME_SYSTEM    = UTC
MEAN_ELEMENT_THEORY = SGP/SGP4

EPOCH          = 2026-02-10T00:45:44.654112
MEAN_MOTION    = 14.39426435
ECCENTRICITY   = .00309261
INCLINATION    = 98.7895
RA_OF_ASC_NODE = 58.5708
ARG_OF_PERICENTER = 284.8640
MEAN_ANOMALY   = 74.9122

EPHEMERIS_TYPE = 0
CLASSIFICATION_TYPE = U
NORAD_CAT_ID   = 21574
ELEMENT_SET_NO = 999
REV_AT_EPOCH   = 81175
BSTAR          = .13493857E-3
MEAN_MOTION_DOT = .376E-5
MEAN_MOTION_DDOT = 0

CCSDS_OMM_VERS = 2.0
CREATION_DATE  = 
ORIGINATOR     = 

OBJECT_NAME    = ARIANE 40 R/B
OBJECT_ID      = 1991-050F
CENTER_NAME    = EARTH
REF_FRAME      = TEME
TIME_SYSTEM    = UTC
MEAN_ELEMENT_THEORY = SGP/SGP4

EPOCH          = 2026-02-10T03:33:48.626208
MEAN_MOTION    = 14.42872944
ECCENTRICITY   = .00038497
INCLINATION    = 98.2073
RA_OF_ASC_NODE = 94.4107
ARG_OF_PERICENTER = 142.0267
MEAN_ANOMALY   = 218.1195

EPHEMERIS_TYPE = 0
CLASSIFICATION_TYPE = U
NORAD_CAT_ID   = 21610
ELEMENT_SET_NO = 999
REV_AT_EPOCH   = 81502
BSTAR          = .11033364E-3
MEAN_MOTION_DOT = .327E-5
MEAN_MOTION_DDOT = 0

CCSDS_OMM_VERS = 2.0
CREATION_DATE  = 
ORIGINATOR     = 

OBJECT_NAME    = INTERCOSMOS 25
OBJECT_ID      = 1991-086A
CENTER_NAME    = EARTH
REF_FRAME      = TEME
TIME_SYSTEM    = UTC
MEAN_ELEMENT_THEORY = SGP/SGP4

EPOCH          = 2026-02-10T05:55:56.532576
MEAN_MOTION    = 12.11922859
ECCENTRICITY   = .14868106
INCLINATION    = 82.6086
RA_OF_ASC_NODE = 326.5911
ARG_OF_PERICENTER = 176.0515
MEAN_ANOMALY   = 185.4021

EPHEMERIS_TYPE = 0
CLASSIFICATION_TYPE = U
NORAD_CAT_ID   = 21819
ELEMENT_SET_NO = 999
REV_AT_EPOCH   = 49336
BSTAR          = .28940249E-3
MEAN_MOTION_DOT = .1491E-4
MEAN_MOTION_DDOT = 0

CCSDS_OMM_VERS = 2.0
CREATION_DATE  = 
ORIGINATOR     = 

OBJECT_NAME    = SL-8 R/B
OBJECT_ID      = 1992-008B
CENTER_NAME    = EARTH
REF_FRAME      = TEME
TIME_SYSTEM    = UTC
MEAN_ELEMENT_THEORY = SGP/SGP4

EPOCH          = 2026-02-10T05:56:03.067872
MEAN_MOTION    = 13.75969680
ECCENTRICITY   = .00338995
INCLINATION    = 82.9261
RA_OF_ASC_NODE = 288.1938
ARG_OF_PERICENTER = 209.6045
MEAN_ANOMALY   = 273.3160

EPHEMERIS_TYPE = 0
CLASSIFICATION_TYPE = U
NORAD_CAT_ID   = 21876
ELEMENT_SET_NO = 999
REV_AT_EPOCH   = 70564
BSTAR          = .17517697E-4
MEAN_MOTION_DOT = .32E-6
MEAN_MOTION_DDOT = 0

CCSDS_OMM_VERS = 2.0
CREATION_DATE  = 
ORIGINATOR     = 

OBJECT_NAME    = SL-8 R/B
OBJECT_ID      = 1992-020B
CENTER_NAME    = EARTH
REF_FRAME      = TEME
TIME_SYSTEM    = UTC
MEAN_ELEMENT_THEORY = SGP/SGP4

EPOCH          = 2026-02-09T20:14:01.464864
MEAN_MOTION    = 13.75545470
ECCENTRICITY   = .0029237
INCLINATION    = 82.9332
RA_OF_ASC_NODE = 174.4303
ARG_OF_PERICENTER = 18.1406
MEAN_ANOMALY   = 92.5423

EPHEMERIS_TYPE = 0
CLASSIFICATION_TYPE = U
NORAD_CAT_ID   = 21938
ELEMENT_SET_NO = 999
REV_AT_EPOCH   = 69730
BSTAR          = .12904572E-3
MEAN_MOTION_DOT = .14E-5
MEAN_MOTION_DDOT = 0

CCSDS_OMM_VERS = 2.0
CREATION_DATE  = 
ORIGINATOR     = 

OBJECT_NAME    = USA 81
OBJECT_ID      = 1992-023A
CENTER_NAME    = EARTH
REF_FRAME      = TEME
TIME_SYSTEM    = UTC
MEAN_ELEMENT_THEORY = SGP/SGP4

EPOCH          = 2026-02-10T06:35:15.045216
MEAN_MOTION    = 14.32357929
ECCENTRICITY   = .00026526
INCLINATION    = 85.0120
RA_OF_ASC_NODE = 147.2491
ARG_OF_PERICENTER = 102.2297
MEAN_ANOMALY   = 257.9193

EPHEMERIS_TYPE = 0
CLASSIFICATION_TYPE = U
NORAD_CAT_ID   = 21949
ELEMENT_SET_NO = 999
REV_AT_EPOCH   = 9086
BSTAR          = .79424837E-4
MEAN_MOTION_DOT = .234E-5
MEAN_MOTION_DDOT = 0

CCSDS_OMM_VERS = 2.0
CREATION_DATE  = 
ORIGINATOR     = 

OBJECT_NAME    = COSMOS 2219
OBJECT_ID      = 1992-076A
CENTER_NAME    = EARTH
REF_FRAME      = TEME
TIME_SYSTEM    = UTC
MEAN_ELEMENT_THEORY = SGP/SGP4

EPOCH          = 2026-02-10T05:10:58.322784
MEAN_MOTION    = 14.14076489
ECCENTRICITY   = .00202602
INCLINATION    = 71.0582
RA_OF_ASC_NODE = 75.5047
ARG_OF_PERICENTER = 244.6841
MEAN_ANOMALY   = 115.2183

EPHEMERIS_TYPE = 0
CLASSIFICATION_TYPE = U
NORAD_CAT_ID   = 22219
ELEMENT_SET_NO = 999
REV_AT_EPOCH   = 71449
BSTAR          = -.3885624E-5
MEAN_MOTION_DOT = -.55E-6
MEAN_MOTION_DDOT = 0

CCSDS_OMM_VERS = 2.0
CREATION_DATE  = 
ORIGINATOR     = 

OBJECT_NAME    = SL-16 R/B
OBJECT_ID      = 1992-076B
CENTER_NAME    = EARTH
REF_FRAME      = TEME
TIME_SYSTEM    = UTC
MEAN_ELEMENT_THEORY = SGP/SGP4

EPOCH          = 2026-02-10T00:59:29.640192
MEAN_MOTION    = 14.16855968
ECCENTRICITY   = .00114391
INCLINATION    = 70.9978
RA_OF_ASC_NODE = 246.6150
ARG_OF_PERICENTER = 145.9399
MEAN_ANOMALY   = 16.5666

EPHEMERIS_TYPE = 0
CLASSIFICATION_TYPE = U
NORAD_CAT_ID   = 22220
ELEMENT_SET_NO = 999
REV_AT_EPOCH   = 71791
BSTAR          = .1861585E-4
MEAN_MOTION_DOT = -.11E-6
MEAN_MOTION_DDOT = 0

CCSDS_OMM_VERS = 2.0
CREATION_DATE  = 
ORIGINATOR     = 

OBJECT_NAME    = COSMOS 2221
OBJECT_ID      = 1992-080A
CENTER_NAME    = EARTH
REF_FRAME      = TEME
TIME_SYSTEM    = UTC
MEAN_ELEMENT_THEORY = SGP/SGP4

EPOCH          = 2026-02-10T05:11:41.671392
MEAN_MOTION    = 14.96091847
ECCENTRICITY   = .00128716
INCLINATION    = 82.5054
RA_OF_ASC_NODE = 305.3930
ARG_OF_PERICENTER = 287.9945
MEAN_ANOMALY   = 71.9873

EPHEMERIS_TYPE = 0
CLASSIFICATION_TYPE = U
NORAD_CAT_ID   = 22236
ELEMENT_SET_NO = 999
REV_AT_EPOCH   = 77668
BSTAR          = .19909425E-3
MEAN_MOTION_DOT = .2266E-4
MEAN_MOTION_DDOT = 0

CCSDS_OMM_VERS = 2.0
CREATION_DATE  = 
ORIGINATOR     = 

OBJECT_NAME    = SL-16 R/B
OBJECT_ID      = 1992-093B
CENTER_NAME    = EARTH
REF_FRAME      = TEME
TIME_SYSTEM    = UTC
MEAN_ELEMENT_THEORY = SGP/SGP4

EPOCH          = 2026-02-10T05:58:15.537216
MEAN_MOTION    = 14.15441055
ECCENTRICITY   = .00051814
INCLINATION    = 71.0200
RA_OF_ASC_NODE = 61.8730
ARG_OF_PERICENTER = 322.6934
MEAN_ANOMALY   = 37.3828

EPHEMERIS_TYPE = 0
CLASSIFICATION_TYPE = U
NORAD_CAT_ID   = 22285
ELEMENT_SET_NO = 999
REV_AT_EPOCH   = 70927
BSTAR          = .25580898E-4
MEAN_MOTION_DOT = .2E-7
MEAN_MOTION_DDOT = 0

CCSDS_OMM_VERS = 2.0
CREATION_DATE  = 
ORIGINATOR     = 

OBJECT_NAME    = COSMOS 2228
OBJECT_ID      = 1992-094A
CENTER_NAME    = EARTH
REF_FRAME      = TEME
TIME_SYSTEM    = UTC
MEAN_ELEMENT_THEORY = SGP/SGP4

EPOCH          = 2026-02-10T06:01:07.233024
MEAN_MOTION    = 14.97063126
ECCENTRICITY   = .00189731
INCLINATION    = 82.5156
RA_OF_ASC_NODE = 263.5859
ARG_OF_PERICENTER = 38.0200
MEAN_ANOMALY   = 322.2357

EPHEMERIS_TYPE = 0
CLASSIFICATION_TYPE = U
NORAD_CAT_ID   = 22286
ELEMENT_SET_NO = 999
REV_AT_EPOCH   = 77195
BSTAR          = .14742472E-3
MEAN_MOTION_DOT = .1731E-4
MEAN_MOTION_DDOT = 0

