SL-14 R/B               
1 21423U 91042B   26041.00439754  .00000418  00000+0  49957-4 0  9993
2 21423  82.4898 246.1496 0016477 336.9902  23.0572 14.81802498848972
ERS-1                   
1 21574U 91050A   26041.03176683  .00000376  00000+0  13494-3 0  9990
2 21574  98.7895  58.5708 0030926 284.8640  74.9122 14.39426435811750
ARIANE 40 R/B           
1 21610U 91050F   26041.14847947  .00000327  00000+0  11033-3 0  9994
2 21610  98.2073  94.4107 0003849 142.0267 218.1195 14.42872944815020
INTERCOSMOS 25          
1 21819U 91086A   26041.24718209  .00001491  00000+0  28940-3 0  9991
2 21819  82.6086 326.5911 1486810 176.0515 185.4021 12.11922859493369
SL-8 R/B                
1 21876U 92008B   26041.24725773  .00000032  00000+0  17518-4 0  9993
2 21876  82.9261 288.1938 0033899 209.6045 273.3160 13.75969680705649
SL-8 R/B                
1 21938U 92020B   26040.84307251  .00000140  00000+0  12905-3 0  9992
2 21938  82.9332 174.4303 0029237  18.1406  92.5423 13.75545470697308
USA 81                  
1 21949U 92023A   26041.27447969  .00000234  00000+0  79425-4 0  9991
2 21949  85.0120 147.2491 0002652 102.2297 257.9193 14.32357929 90863
COSMOS 2219             
1 22219U 92076A   26041.21595281 -.00000055  00000+0 -38856-5 0  9992
2 22219  71.0582  75.5047 0020260 244.6841 115.2183 14.14076489714498
SL-16 R/B               
1 22220U 92076B   26041.04131528 -.00000011  00000+0  18616-4 0  9997
2 22220  70.9978 246.6150 0011439 145.9399  16.5666 14.16855968717910
COSMOS 2221             
1 22236U 92080A   26041.21645453  .00002266  00000+0  19909-3 0  9993
2 22236  82.5054 305.3930 0012871 287.9945  71.9873 14.96091847776685
SL-16 R/B               
1 22285U 92093B   26041.24879094  .00000002  00000+0  25581-4 0  9994
2 22285  71.0200  61.8730 0005181 322.6934  37.3828 14.15441055709276
COSMOS 2228             
1 22286U 92094A   26041.25077816  .00001731  00000+0  14742-3 0  9995
2 22286  82.5156 263.5859 0018973  38.0200 322.2357 14.97063126771950
